FIRST NAME,LAST NAME,EMAIL,PHONE,STREET,CITY,STATE,ZIPCODE
Allison sarah,Nguyen,arannon@jumpstartlab.com,(615) 438-5000,3155 19th St NW,Washington,DC,20010
SArah,Hankins,pinalevitsky@jumpstartlab.com,(414) 520-5000,2022 15th Street NW,Washington,DC,20009
Sofia,Murillo,lpohen@jumpstartlab.com,(202) 319-2000,"702 H St, suite 300",Washington,DC,20001
Katie,Baimas-George,svsullivan88@jumpstartlab.com,(608) 516-9000,1123 Harvard St. unit R,Washington,DC,20009
Nate,Endres,rmaiorana@jumpstartlab.com,(310) 902-4000,3332 Quesada St.,NW,DC,20015
Melanie,Stevenson,jebergma@jumpstartlab.com,(202) 270-3000,3646 Warder St. NW,Washington,DC,20010
Aurora,Ortega,yfr42@jumpstartlab.com,(202) 554-3000,520 N St SW,Washington,DC,20024
Justin,Chinana,ipesha226@jumpstartlab.com,(434) 989-1000,3321 16th St NW,Washington,DC,20010
Lee,Sachs,bwd6273@jumpstartlab.com,(202) 635-2000,1225 Otis St NE,Washington,DC,20017
Kristina,Trowbridge,oumandrell@jumpstartlab.com,(202) 481-6000,"110 Maryland Ave., NE, Suite 108",Washington,DC,20002
Sean,Modawal,ufmPalley@jumpstartlab.com,(202) 232-7000,1718 Connecticut Ave. NW Suite 300,Washington,DC,20009
Michael,Murphy,bxthewsm@jumpstartlab.com,(202) 232-7000,1718 Connecticut Ave. NW Suite 300,Washington,DC,20009
Callie,McLaughlin,gdacyjamesrossi2@jumpstartlab.com,(202) 552-3000,"391 Michigan Ave., NE",Washington,DC,20017
Eva,Rotman,cgngo8456@jumpstartlab.com,(202) 756-4000,PO Box 29132,Washington,DC,20017
Donna,Taylor,hmisJohnsonPS@jumpstartlab.com,(215) 715-0000,1409 37th St NW,Washington,DC,20007
Dan,Fraissinet,kggoyer@jumpstartlab.com,(850) 445-5000,"Box #577150, Georgetown Univ.",Washington,DC,20057
William,Kristian,xokelly@jumpstartlab.com,(603) 661-5000,812 Randolph St. NW,Washington,DC,20011
Jessie,Kurdyla,etcooke11@jumpstartlab.com,(805) 907-5000,"2915 Connecticut Avenue, NW Apt. 207",Washington,DC,20008
Sophie,Lade,cpagenkn@jumpstartlab.com,(321) 480-4000,2505 13th St. NW,Washington,DC,20009
Lala,Leung,vsmcneal@jumpstartlab.com,(561) 339-1000,2505 13th St. NW,Washington,DC,20009
Daryl,Gutbrod,tknt.jamie@jumpstartlab.com,(202) 256-2000,2941 Chesapeake St NW,Washington,DC,20008
Megan,Craig,nslopuppet_o_o@jumpstartlab.com,(917) 280-6000,1409 37th St.,Washington,DC,20007
Laura,Xx,abnedoe3@jumpstartlab.com,(802) 659-4000,"2601 Woodley Place NW, Apt 813",Washington,DC,20008
Jeannie,Bryant,kkserpe08@jumpstartlab.com,(845) 797-3000,"2727 29th Street NW, Apt 305",Washington,DC,20008
Rachel,Haut,jqisten.greenwald@jumpstartlab.com,(845) 797-3000,"2727 29th Street NW, Apt. 232",Washington,DC,20008
Lucia,Karoluk,wonisegarcia666@jumpstartlab.com,(315) 750-0000,"2727 29th Street NW, Apt. 305",Washington,DC,20008
Jenna,B,wdack.satin.feathers@jumpstartlab.com,(973) 902-1000,"2727 29th Street NW, Apt. 305",Washington,DC,20008
Lucy,Frick,xcott33@jumpstartlab.com,(201) 913-4000,"2727 29th Street NW, Apt. 211",Washington,DC,20008
Alan,Stoneking,euizabethlev@jumpstartlab.com,(646) 258-2000,"2727 29th Street NW, Apt. 529",Washington,DC,20008
Vax,Doe,nyesoto@jumpstartlab.com,(315) 391-7000,2727 29th Street NW,Washington,DC,20008
Erik,Beardsley,ngangrpl@jumpstartlab.com,(201) 786-3000,"2727 29th Street NW, Apt. 232",Washington,DC,20008
Guy,Halter,rdett.buikema@jumpstartlab.com,(707) 337-3000,"2727 29th Street NW, Apt. 529",Washington,DC,20008
Juliette,Alvarez,luroberts05@jumpstartlab.com,(973) 332-3000,"2727 29th Street NW, Apt. 323",Washington,DC,20008
Fiona,Mclaren,wyohr@jumpstartlab.com,(315) 825-5000,"2727 29th Street NW, Apt. 232",Washington,DC,20008
Jen,Peavler,wyate2@jumpstartlab.com,(240) 645-5000,"3000 Cathedral Avenue, NW",Washington,DC,20008
Laura,Oh,ball0166@jumpstartlab.com,(240) 645-5000,"3000 Cathedral Ave, NW",Washington,DC,20008
Zack,Astrove,fkolfgan@jumpstartlab.com,(240) 645-5000,"3000 Cathedral Ave, NW",Washington,DC,20008
One,Fitzgerald,nplds@jumpstartlab.com,(240) 645-5000,"3000 Cathedral Ave, NW",Washington,DC,20008
Meghan,Vanegas,bu@jumpstartlab.com,(240) 645-5000,"3000 Cathedral Ave, NW",Washington,DC,20008
Lauren,Berlin,kff_wehrenjk@jumpstartlab.com,(240) 645-5000,"3000 Cathedral Ave, NW",Washington,DC,20008
Allison,Gracey,fhrlemail1@jumpstartlab.com,(240) 645-5000,"3000 Cathedral Ave, NW",Washington,DC,20008
Lindsay,Aronoff,aslissanypirg@jumpstartlab.com,(240) 645-5000,"3000 Cathedral Ave, NW",Washington,DC,20008
Jennifer,Avalos,deiaz@jumpstartlab.com,(443) 504-4000,3168 17th St NW,Washington,DC,20010
Stephanie,Baird,omani.sheva@jumpstartlab.com,(240) 645-5000,"3000 Cathedral Ave, NW",Washington,DC,20008
Kendra,Xx,ygalabre@jumpstartlab.com,(240) 645-5000,"3000 Cathedral Ave, NW",Washington,DC,20008
Katey,Benders,jdf28@jumpstartlab.com,(240) 645-5000,"3000 Cathedral Ave, NW",Washington,DC,20008
Alyssa,Abraham,durnetta@jumpstartlab.com,(240) 645-5000,"3000 Cathedral Ave, NW",Washington,DC,20008
Sierra,Langone,jbmcwilliams@jumpstartlab.com,(240) 645-5000,"3000 Cathedral Ave, NW",Washington,DC,20008
Megan,J,gwlter@jumpstartlab.com,(240) 645-5000,"3000 Cathedral Ave, NW",Washington,DC,20008
Adam,Starodaj,fkorterfield@jumpstartlab.com,(240) 645-5000,"3000 Cathedral Ave, NW",Washington,DC,20008
Roxanne,Carbajo,bxlegra.fonda-bonardi@jumpstartlab.com,(240) 645-5000,"3000 Cathedral Ave, NW",Washington,DC,20008
Adriana,Zapfel,vemusic@jumpstartlab.com,(240) 645-5000,"3000 Cathedral Ave, NW",Washington,DC,20008
Medina,Cao,dkulger@jumpstartlab.com,(240) 645-5000,"3000 Cathedral Ave, NW",Washington,DC,20008
Althea,Xx,udsaw87@jumpstartlab.com,(240) 645-5000,"3000 Cathedral Ave, NW",Washington,DC,20008
Ryan,DeBuck,ghyce_m@jumpstartlab.com,(240) 645-5000,3000 Cathedral Ave NW,Washington,DC,20008
Jenny,Barrett,ym1106a@jumpstartlab.com,(515) 231-4000,4201 Massachusetts Ave NW,Washington,DC,20016
Monica,Wilson,rblary@jumpstartlab.com,(201) 208-5000,4400 Massachusetts Ave NW,Washington,DC,20016
Sandy,Mike-Bidtah,sytrm6@jumpstartlab.com,(203) 687-6000,4400 Massachusetts Ave NW,Washington,DC,20016
Jacob,Two,cyvid@jumpstartlab.com,(215) 527-5000,4400 Massachusetts Ave NW,Washington,DC,20016
Erika,Guilbeault,qt336707@jumpstartlab.com,(856) 309-1000,4400 Massachusetts Ave NW,Washington,DC,20016
Rachel,Kazyak,lpmberly.upstill07@jumpstartlab.com,(717) 405-9000,4400 Massachusetts Ave NW,Washington,DC,20016
Alejandro,Anderson,sydy0314@jumpstartlab.com,(914) 441-7000,4400 Massachusetts Ave NW,Washington,DC,20016
Jennifer,Silva,qpfox@jumpstartlab.com,(202) 457-7000,4400 Massachusetts Ave NW,Washington,DC,20016
Madeline,Shamel,wq1luv@jumpstartlab.com,(301) 654-5000,"3825 Wisconsin Avenue, NW",Washington,DC,20016
Samuel,Carpenter,wsmanley@jumpstartlab.com,(301) 654-5000,"3825 Wisconsin Avenue, NW",Washington,DC,20016
Meredith,Lochner,mosheridan@jumpstartlab.com,(610) 334-0000,4400 Massachusetts Ave NW,Washington,DC,20016
James,Doe,nlhneenampudiyay@jumpstartlab.com,(267) 467-4000,4400 Massachusetts Ave NW,Washington,DC,20016
Josh,Evarts,bnaci@jumpstartlab.com,(301) 654-5000,"3825 Wisconsin Avenue, NW",Washington,DC,20016
Alicia,Veysey,cyaen1.arnold@jumpstartlab.com,(301) 654-5000,"3825 Wisconsin Avenue, NW",Washington,DC,20016
Grant,Le,xlielke@jumpstartlab.com,(301) 654-5000,"3825 Wisconsin Avenue, NW",Washington,DC,20016
Mayrah,Hecht,htcmseac@jumpstartlab.com,(301) 654-5000,"3825 Wisconsin Avenue, NW",Washington,DC,20016
Jessica,Mellen,egm118@jumpstartlab.com,(301) 654-5000,"3825 Wisconsin Avenue, NW",Washington,DC,20016
Jamie3,Crutcher,ssckereg@jumpstartlab.com,(301) 654-5000,"3825 Wisconsin Avenue, NW",Washington,DC,20016
Kelsy,Weitner,bxBurdiss@jumpstartlab.com,(301) 654-5000,"3825 Wisconsin Avenue, NW",Washington,DC,20016
Ashley,Vandeputte,owzapf@jumpstartlab.com,(301) 654-5000,"3825 Wisconsin Avenue, NW",Washington,DC,20016
Meaghan,Cunningham,njompsonswartz@jumpstartlab.com,(301) 654-5000,"3825 Wisconsin Avenue, NW",Washington,DC,20016
Natalie,Otukoya,kq454969@jumpstartlab.com,(301) 654-5000,"3825 Wisconsin Avenue, NW",Washington,DC,20016
Alicia,Weisberg,nuagnoni@jumpstartlab.com,(301) 654-5000,"3825 Wisconsin Avenue, NW",Washington,DC,20016
Olivia,Costa,blsmith@jumpstartlab.com,(301) 654-5000,"3825 Wisconsin Avenue, NW",Washington,DC,20016
Winslow,Hanson,cvtrohmayer@jumpstartlab.com,(301) 654-5000,"3825 Wisconsin Avenue, NW",Washington,DC,20016
Leah,Ayers,vjstevens_2010@jumpstartlab.com,(301) 654-5000,"3825 Wisconsin Avenue, NW",Washington,DC,20016
Meagan,Siegel,ifhirih.alia@jumpstartlab.com,(301) 654-5000,"3825 Wisconsin Avenue, NW",Washington,DC,20016
Alexandra,Jenkins,kxnlop316@jumpstartlab.com,(301) 654-5000,"3825 Wisconsin Avenue, NW",Washington,DC,20016
Jesse,Farrell,iwee@jumpstartlab.com,(301) 654-5000,"3825 Wisconsin Avenue, NW",Washington,DC,20016
Adam,Zimmerman,jal08d@jumpstartlab.com,(301) 654-5000,"3825 Wisconsin Avenue, NW",Washington,DC,20016
Abigail,Keith,qinder.buitelaar@jumpstartlab.com,(301) 654-5000,"3825 Wisconsin Avenue, NW",Washington,DC,20016
Kayla,Stevens,vda2@jumpstartlab.com,(301) 654-5000,"3825 Wisconsin Avenue, NW",Washington,DC,20016
Jane,Green,cmohan3@jumpstartlab.com,(301) 654-5000,"3825 Wisconsin Avenue, NW",Washington,DC,20016
Ashley,Tourneville,wcbutler@jumpstartlab.com,(301) 654-5000,"3825 Wisconsin Avenue, NW",Washington,DC,20016
Chelsea,Gaudin,maitenz@jumpstartlab.com,(301) 654-5000,"3825 Wisconsin Avenue, NW",Washington,DC,20016
Jordan,Indvik,mbraele@jumpstartlab.com,(301) 654-5000,"3825 Wisconsin Avenue, NW",Washington,DC,20016
Julia,Hatcher,uyliott@jumpstartlab.com,(551) 486-5000,"1804 Kilbourne Pl NW,",Washington,DC,20010
Vanessa,Beckman,leerry.finkel@jumpstartlab.com,(913) 406-3000,"620 21st Street, NW, #201",Washington,DC,66209
Matthew,Gibbs,gxskag08@jumpstartlab.com,(202) 386-0000,2222 Eye Street,Washington,DC,20052
Karson,Dowd,klotazewell@jumpstartlab.com,(347) 207-2000,"2222 Eye Street, NW, #303",Washington,DC,20052
Kimberly,Furey,jqayes25@jumpstartlab.com,(602) 291-3000,"950 24th St, NW, #816",Washington,DC,20052
Kate,Wojtalewicz,pfdasamc@jumpstartlab.com,(413) 539-3000,"950 24th St, NW, #413",Washington,DC,20052
Rachel,Milem,vvurphy3@jumpstartlab.com,(330) 388-9000,"2021 F Street, NW, #921",Washington,DC,20052
Cress,Schafer,sodolgin@jumpstartlab.com,"","620 21st Street, NW",Washington,DC,20052
Molly,Jackson,ofdaroman@jumpstartlab.com,(504) 994-7000,"950 24th St, NW, #1108",Washington,DC,20052
Vanessa,Dawson,casusanrubin@jumpstartlab.com,(802) 598-2000,"950 24th St, NW, #816",Washington,DC,20052
Raymond,Vyas,gwdela10@jumpstartlab.com,(860) 478-4000,"2222 Eye Street, NW, #302",Washington,DC,20052
Christian,Nelson,vkchel.neuschatz@jumpstartlab.com,(201) 919-1000,"2031 F Street, NW",Washington,DC,20052
Roxanna,Mellace,lvarnswo@jumpstartlab.com,(773) 330-2000,"1723 Webster St, NW",Washington,DC,00000
Brian,Zipin,wwshaw@jumpstartlab.com,(301) 312-7000,"3825 Wisconsin Avenue, NW",Washington,DC,20016
Lacey,Tran,whsouza@jumpstartlab.com,(301) 312-7000,"3825 Wisconsin Avenue, NW",Washington,DC,20016
Allyson,McCole,ixlmeida@jumpstartlab.com,(301) 312-7000,"3825 Wisconsin Avenue, NW",Washington,DC,20016
Elizabeth,Lenhart,xwmmerlek@jumpstartlab.com,(301) 312-7000,"3825 Wisconsin Avenue, NW",Washington,DC,20016
Kelsey,Walters,hctthew.kramer@jumpstartlab.com,(301) 312-7000,"3825 Wisconsin Avenue, NW",Washington,DC,20016
Einer,Sorenson,sxafcook@jumpstartlab.com,(301) 312-7000,"3825 Wisconsin Avenue, NW",Washington,DC,20016
Lucia,Rojas,hlujaeagles@jumpstartlab.com,(301) 312-7000,"3825 Wisconsin Avenue, NW",Washington,DC,20016
Lauren,Kent,epygrl7@jumpstartlab.com,(301) 312-7000,"3825 Wisconsin Avenue, NW",Washington,DC,20016
Kim,Lobue,tclpert@jumpstartlab.com,(301) 312-7000,"3825 Wisconsin Avenue, NW",Washington,DC,20016
Paula,Rowe,ggbin.averbeck@jumpstartlab.com,(301) 312-7000,"3825 Wisconsin Avenue, NW",Washington,DC,20016
Amanda,Flanagan,rrnka@jumpstartlab.com,(301) 312-7000,"3825 Wisconsin Avenue, NW",Washington,DC,20016
Rachel,Mack,kjaru@jumpstartlab.com,(301) 312-7000,"3825 Wisconsin Avenue, NW",Washington,DC,20016
Annelies,Vig,orrek.j.roy@jumpstartlab.com,(301) 312-7000,http://410woman.googlepages.com,Washington,DC,20016
Christi,Two,xdolec1@jumpstartlab.com,(202) 302-7000,3003 Van Ness St. NW #S606,Washington,DC,20008
David,Francom Redstone,el69703@jumpstartlab.com,(360) 790-3000,2223 H St NW,Washington,DC,20052
Kyle,Melas,mbduan08@jumpstartlab.com,(310) 779-8000,1409 37th St. NW,Washington,DC,20007
Julie,Doe,hcilson@jumpstartlab.com,(240) 393-7000,1620 Argonne Place N.W.,Washington,DC,20009
Rosemary,Hileman,rapsherryx3@jumpstartlab.com,(703) 389-0000,4110 14th St. NW,Washington,DC,20011
Maura,Viglietta,updkinss@jumpstartlab.com,(917) 407-4000,4110 14th St. NW,Washington,DC,20011
Allison,Dolkart,ieim19@jumpstartlab.com,(607) 346-6000,2021 F Street NW,Washington,DC,20052
Mary,Ther,hobdul27@jumpstartlab.com,(202) 494-2000,1858 California St. NW #41,Washington,DC,20009
Sasha,Reilly,faomas.Berlangera@jumpstartlab.com,(706) 832-2000,1928 38th ST NW,Washington,DC,20007
Catherine,Varlese,gusonsm@jumpstartlab.com,(510) 657-7000,800 florida ave ne #1224,washington,DC,20002
Elizabeth,Garlick,vnisha_pavao@jumpstartlab.com,(202) 319-2000,"702 H St NW, Ste 300",Washington,DC,20001
Sally,Carey,apu.brazell@jumpstartlab.com,(202) 319-2000,"702 H St NW, Ste 300",Washington,DC,20001
Melissa,Frys,ab136507@jumpstartlab.com,(541) 868-4000,1302 36th St NW,Washington,DC,20007
Tamer,Deveau,wgurns4@jumpstartlab.com,(202) 997-5000,1718 21st Street NW,Washington,DC,20009
Lisa,Davis,hg@jumpstartlab.com,(301) 675-4000,4461 Westover Place,Washington,DC,20016
Ansally,Pfeiffer,pltanich@jumpstartlab.com,(908) 307-4000,"2124 Eye St NW, West End #506",Washington,DC,20052
Nathalie,Oblisk,ryaole@jumpstartlab.com,(443) 386-6000,"2350 H St NW, New Hall 707",Washington,DC,20052
Leslye,Fong,xksonVates@jumpstartlab.com,(718) 308-8000,"2119 H St NW, Crawford #210",Washington,DC,20052
Wesley,Aroneanu,efraguza@jumpstartlab.com,(908) 672-3000,"2021 F St NW, Potomac #1006",Washington,DC,20052
Anita,Singh,xjlomo68@jumpstartlab.com,(440) 725-9000,"1900 F St NW, Thurston #221",Washington,DC,20052
Stephen,Oheim,kuack@jumpstartlab.com,(410) 302-0000,"1900 F St NW, Thurston #418",Washington,DC,20052
Ivey,Albeck,bxll13@jumpstartlab.com,(603) 562-7000,"4425 Reno Road, NW",Washington,DC,20008
Alison,England,wlutko@jumpstartlab.com,(508) 404-6000,1673 Columbia Rd. NW Apt. 400,Washington,DC,20009
Maria,Amster,ckongwer@jumpstartlab.com,"",155 Indian Avenue,Lawrence,DC,66046
Annelise,Tsuji,hrchaelaraman@jumpstartlab.com,"",235 2nd St NE,Washington,DC,20002
Megan,Arene-Morley,fhanchan@jumpstartlab.com,(202) 297-7000,37th and O Streets NW,Washington,DC,20057
Chris,Doane,kpilch1@jumpstartlab.com,(918) 706-9000,Copley G17 Box 573539 Georgetown University,Washington,DC,20057
Molly,Saretzky,vcsh7444@jumpstartlab.com,(202) 386-2000,"2022 15th Street, NW",Washington,DC,20009
Skye,Bulis,hecameri@jumpstartlab.com,(202) 213-8000,"1500 Massachusetts Ave, #546",Washington,DC,20005
Matthew,Hutton,ydwittig@jumpstartlab.com,(845) 224-9000,"512 McCarthy Hall, Georgetown University",Washington,DC,20057
Rei,Doe,fuusso@jumpstartlab.com,(845) 224-9000,Box 573757,Washington,DC,20057
Monica,Cormia,ksf_hellerla@jumpstartlab.com,(516) 384-0000,"Georgetown University, Village A F206",Washington,DC,20057
David,Larsson,cwtchell67@jumpstartlab.com,(517) 655-4000,1608 Rhode Island Ave NW,Washington,DC,00000
Kimberly,Sikes,er00168456@jumpstartlab.com,(202) 256-1000,3626 T St,Washington,DC,20007
Stephanie,Miller,put.springer@jumpstartlab.com,(202) 468-5000,3636 T St. NW,Washington,DC,20007
Cara,Roe,ijurf@jumpstartlab.com,(617) 529-6000,"736 22nd St NW, Room 706",Washington,DC,20052
Joe,Vernon,xkmes.p.gilchrist@jumpstartlab.com,(720) 934-8000,3636 T St. NW,Washington,DC,20007
Jamie,Schreck,jdeley11@jumpstartlab.com,(330) 304-2000,1515 3rd St. NW,Washington,DC,20001
Kristen,Lancaster,xuller@jumpstartlab.com,(260) 460-0000,"1255 New Hampshire Ave NW, Apt 108",Washington,DC,20036
Kasey,Smith,yochellejcoker@jumpstartlab.com,(202) 588-0000,1727 Massachusetts Ave NW,Washington,DC,20036
Rufio,Light,itristinalouisebell@jumpstartlab.com,(415) 699-7000,1608 Rhode Island Ave,Washington DC,DC,20036
Ethan,Chang,hhhn.walker@jumpstartlab.com,(510) 610-1000,"1608 Rhode Island Ave, NW",Washington,DC,20036
Jason,Costantino,efochner@jumpstartlab.com,(626) 840-6000,"1608 Rhode Island Ave, NW",Washington,DC,20036
Dan,Bryant,eyrzipan@jumpstartlab.com,(510) 452-7000,"1608 Rhode Island Ave, NW",Washington,DC,20036
John,Zeller,eyudartj@jumpstartlab.com,(805) 766-2000,"1608 Rhode Island Ave, NW",Washington,DC,20036
Ellen,Graham,bkorris@jumpstartlab.com,(202) 657-9000,58 Bryant Street NW,Washington,DC,20001
Miranda,Lee Tan,bbeyward09@jumpstartlab.com,(202) 546-7000,2531 Q St. NW Apt. 205,Washington,DC,20007
Kelly,Oldershaw,rlandros@jumpstartlab.com,(517) 712-7000,"Harbin 726, Georgetown University",Washington,DC,20057
Nancy,Davis,weey.wohlfeld@jumpstartlab.com,(845) 224-9000,Box 574262 Georgetown University,Washington,DC,04262
Charles,Gray,qdrikyassien@jumpstartlab.com,(503) 380-2000,4400 Massachusetts Avenue,Washington,DC,20016
Molly,Kraft,qncarter@jumpstartlab.com,(617) 480-8000,"2000 N Street, NW",Washington,DC,20036
Jill,Futterman,dprent08@jumpstartlab.com,(503) 380-2000,4400 Massachusetts Avenue,Washington,DC,20016
Dominique,Rasmussen,gaffey@jumpstartlab.com,(859) 948-5000,4400 Massachusetts Avenue,Washington,DC,20016
Jeanna,De Soto,kce.chadcarson+4@jumpstartlab.com,(206) 261-8000,4400 Massachusetts Avenue,Washington,DC,20016
Mackenzie,Davila,nmkokal@jumpstartlab.com,(541) 760-8000,4400 Massachusetts Avenue,Washington,DC,00000
Holly,McLoughlin,if338@jumpstartlab.com,(541) 760-8000,4400 Massachusetts Avenue,Washington,DC,20016
Kelsey,Wadsworth,cmartzel@jumpstartlab.com,(949) 547-8000,901 6th St. SW Apt 414A,Washington,DC,20024
Aaron,Cappelli,mwgan.foster@jumpstartlab.com,(610) 324-8000,4400 Massachusetts Avenue,Washington,DC,20016
Jennifer,Wichman,vehns1jm@jumpstartlab.com,(503) 258-7000,4400 Massachusetts Avenue,Washington,DC,20016
Dan,Schwaller,tfpomeroy@jumpstartlab.com,(415) 847-0000,4400 Massachusetts Avenue,Washington,DC,20016
Jorge,Kagan,utrtjp@jumpstartlab.com,(410) 652-0000,4400 Massachusetts Avenue,Washington,DC,20016
Perry,Shillingford,sryers@jumpstartlab.com,(978) 855-8000,4400 Massachusetts Avenue,Washington,DC,20016
Sam,Kneidinger,pskiha@jumpstartlab.com,(505) 563-0000,4400 Massachusetts Avenue,Washington,DC,20016
Lauren,Elion,phya_godwin@jumpstartlab.com,(626) 598-5000,"901 6th St. SW, Apt 414A",Washington,DC,20024
Vanessa,Dube,kmbrink08@jumpstartlab.com,(404) 488-6000,4400 Massachusetts Avenue,Washington,DC,20016
Kelley,Boyyyyy,qswolf@jumpstartlab.com,(202) 885-1000,4400 Massachusetts Avenue,Washington,DC,20016
Chris,Edge,pcickers@jumpstartlab.com,(503) 998-8000,4400 Massachusetts Avenue,washington,DC,20016
Ryan,Shearer,hollins.756@jumpstartlab.com,(626) 290-6000,901 6th St. SW Apt 414A,Washington,DC,20024
Teen,Powers,ren@jumpstartlab.com,(570) 982-9200,4400 Massachusetts Avenue,Washington,DC,20016
Alicia,Krautheim,vnrossm2@jumpstartlab.com,(270) 282-1000,4400 Massachusetts Avenue,Washington,DC,20016
Troy,Seithers,vtottc@jumpstartlab.com,(717) 669-3000,4400 Massachusetts Avenue,Washington,DC,20016
Ileana,Meyer,slnny.woldorf@jumpstartlab.com,(570) 982-9200,4400 Massachusetts Avenue,Washington,DC,20016
Breena,Ghaelian,ugyer20n@jumpstartlab.com,(650) 303-6000,4400 Massachusetts Avenue,Washington,DC,20016
Lindsay,Betancourt,fkll11@jumpstartlab.com,(202) 882-3000,1507 Gallatin Street NW,"Washington, DC",DC,20011
Praween,Green,yswwwwwwwwww@jumpstartlab.com,(443) 789-4000,4400 Massachusetts Avenue,Washington,DC,20016
Lisa,Gallenstein,qas6240@jumpstartlab.com,(615) 512-7000,4400 Massachusetts Avenue,Washington,DC,20016
David,Cardinal,ptodallm@jumpstartlab.com,(412) 613-7000,4400 Massachusetts Avenue,washington,DC,20016
Paul,Davison,wcll16@jumpstartlab.com,(305) 283-5000,4400 Massachusetts Avenue,Washington,DC,20016
X,Gasparek,qr8602a@jumpstartlab.com,(610) 295-4000,4400 Massachusetts Avenue,Washington,DC,20016
Blaine,Gandi,ptbatebob@jumpstartlab.com,(609) 713-0000,4400 Massachusetts Avenue,Washington,DC,20016
Connie,Swartwood,btndguage@jumpstartlab.com,(516) 996-7000,4400 Massachusetts Avenue,Washington,DC,20016
Leila,Bischoff,mkoodman@jumpstartlab.com,(781) 424-0000,4400 Massachusetts Avenue,Washington,DC,20016
Winter,Parvaz,knllyhorak@jumpstartlab.com,(817) 874-7000,4400 Massachusetts Avenue,Washington,DC,20016
Cameron,Bhalsod,eoawrence2@jumpstartlab.com,(717) 339-7000,4400 Massachusetts Avenue,Washington,DC,20016
Laura,Phillips,xgarotzky@jumpstartlab.com,(603) 562-8000,1217 Franklin St NE,Washington,DC,20017
Boris,Mostow,rcrdos12@jumpstartlab.com,(631) 241-5000,4400 Massachusetts Avenue,washington,DC,20016
Astrid,Peffier,alcoolfool@jumpstartlab.com,(401) 578-8000,4400 Massachusetts Avenue,Washington,DC,20016
Erica,Duval,uasample@jumpstartlab.com,(636) 489-9000,4400 Massachusetts Avenue,Washington,DC,20016
Lubaba,Geisinger,pqchellefwebb@jumpstartlab.com,(508) 254-4000,4400 Massachusetts Avenue,Washington,DC,20016
Ashley,Kubica,pldrew.mariotti@jumpstartlab.com,(781) 479-6000,4400 Massachusetts Avenue,Washington,DC,20016
Adrienne,Lutch,bmalprin@jumpstartlab.com,(610) 858-5000,4400 Massachusetts Avenue,Washington,DC,20016
Cody,Doe,tkstressneko.lily@jumpstartlab.com,(704) 737-8000,4400 Massachusetts Avenue,Washington,DC,20016
Finn,Gloster,end211@jumpstartlab.com,(484) 653-7000,4400 Massachusetts Avenue,Washington,DC,20016
Melissa,Bowling,yim138@jumpstartlab.com,(631) 223-6000,736 22nd Street rm 205,Washington DC,DC,20052
Nicole,Porter,iqryars11@jumpstartlab.com,(510) 508-0000,1608 Rhode Island Ave. NW #708,Washington,DC,20036
Jafar,Cotton,hroon-van-diest.4@jumpstartlab.com,(540) 888-3000,1616 P. Street NW Suite 340,Washington,DC,20036
Nicole,Six,un404607@jumpstartlab.com,(540) 888-3000,1616 P. street NW suite 340,washington,DC,20036
Aidan,O'Neill,uhham.christie@jumpstartlab.com,(540) 888-3000,1616 P. street NW suite 340,washington,DC,20036
K,Rempel,ry5309a@jumpstartlab.com,(540) 888-3000,1616 P. street NW suite 340,washington,DC,20036
Katelyn,Mohammed,vxpl3@jumpstartlab.com,(540) 888-3000,1616 P. street NW suite 340,washington,DC,20036
Amanda,Johnson,vqhndoe@jumpstartlab.com,(540) 888-3000,1616 P. street NW suite 340,washington,DC,20036
B,Liakos,urviroaction@jumpstartlab.com,(540) 888-3000,1616 P. street NW suite 340,washington,DC,20036
Emily,Hoepfinger,buifkin@jumpstartlab.com,(540) 888-3000,1616 P. street NW suite 340,washington,DC,20036
Kyle,Hoyles,kehndoe12@jumpstartlab.com,(540) 888-3000,1616 P. street NW suite 340,washington,DC,20036
Ralph,Locascio,eey.mehulebrun@jumpstartlab.com,(540) 888-3000,1616 P. street NW suite 340,washington,DC,20036
Samuel,Lambert-Williams,emapman.elisabeth@jumpstartlab.com,(540) 888-3000,1616 P. street NW suite 340,washington,DC,20036
Laura,Bennett,sqerson1@jumpstartlab.com,(540) 888-3000,1616 P Street NW Suite 340,washington,DC,20036
Caitlin,Easter,ghel@jumpstartlab.com,(310) 569-8000,321 South Carolina Ave SE,Washington,DC,20003
Torsten,Weber-Shirk,ggd2543@jumpstartlab.com,(540) 888-3000,1616 P Street NW Suite 340,Washington,DC,20036
Mrinalini,Billman,ihnwaax07@jumpstartlab.com,(540) 888-3000,1616 P Street NW Suite 340,Washington,DC,20036
Tom,Pomeroy,gkackwella2@jumpstartlab.com,(540) 888-3000,1616 P Street NW Suite 340,Washington,DC,20036
Abby,Peterson,jweise@jumpstartlab.com,(323) 687-0000,"1608 Rhode Island Ave, NW",Washington,DC,20036
Kate,Scholnick,xrvanals@jumpstartlab.com,(323) 687-0000,"1608 Rhode Island Ave, NW",Washington,DC,20036
Michelle,Rudderman,fwchtywr@jumpstartlab.com,(847) 347-8000,Georgetown University Kennedy K-227,Washington,DC,20057
Bryce,Lupolt,qclese_11@jumpstartlab.com,(831) 419-7000,"1608 Rhode Island Ave, NW Apt 908",Washington,DC,20036
Simone,Sosin,kferriam@jumpstartlab.com,(202) 481-8000,1333 H St. NW 1st Floor,Washington,DC,20005
Allison,Coronado,beblaaron01@jumpstartlab.com,(805) 448-1000,"2100 I Street, NW, GW University â€“ Lafayette Hall #403",Washington,DC,20052
Anika,Roux,clanessaj@jumpstartlab.com,(773) 569-2000,215 Pennsylvania Ave. SE 3rd FL,Washington,DC,20003
Greg,SAUNDERS,jyukhov@jumpstartlab.com,(240) 645-5000,"3000 Cathedral Ave, NW",Washington,DC,20008
